ONEWEB-0160             
1 48060U 21025U   23230.79035354 -.00000016  00000+0 -77931-4 0  9993
2 48060  87.9082 165.7887 0001323 106.3025 253.8250 13.13473141117903
ONEWEB-0163             
1 48061U 21025V   23231.76586176 -.00000042  00000+0 -14997-3 0  9996
2 48061  87.9096 165.5846 0002822  70.4686 289.6748 13.13473846118161
ONEWEB-0159             
1 48062U 21025W   23231.75527814 -.00000102  00000+0 -31342-3 0  9990
2 48062  87.9093 165.6125 0002328  70.0214 290.1166 13.13471162118074
ONEWEB-0164             
1 48063U 21025X   23231.12682473  .00000307  00000+0  80676-3 0  9994
2 48063  87.9088 165.7056 0002130  85.0268 275.1105 13.13469398117982
ONEWEB-0167             
1 48064U 21025Y   23231.38599872 -.00000246  00000+0 -70805-3 0  9990
2 48064  87.9089 165.6632 0002273  74.9927 285.1454 13.13472757117992
ONEWEB-0166             
1 48065U 21025Z   23231.78914252  .00000025  00000+0  33353-4 0  9999
2 48065  87.9085 165.5787 0002026  72.2292 287.9058 13.13471899118123
ONEWEB-0151             
1 48066U 21025AA  23230.80094821  .00000228  00000+0  59020-3 0  9996
2 48066  87.9087 165.7803 0002125  87.1300 273.0072 13.13469780117949
ONEWEB-0170             
1 48067U 21025AB  23231.34053676  .00000346  00000+0  91368-3 0  9992
2 48067  87.9088 165.6727 0002040 100.4246 259.7113 13.13470441117964
